STARLINK-35772          
1 66976U 25288T   25357.91668981 -.02213475  00000+0 -42859-1 0  9993
2 66976  43.0001  99.7126 0001476 271.7913  72.5018 15.50528466  3622
STARLINK-35770          
1 66977U 25288U   25357.91668981 -.01956446  00000+0 -16946-1 0  9993
2 66977  43.0003  98.8215 0001549 279.0090  64.1782 15.71238410  3627
STARLINK-35787          
1 66978U 25288V   25357.91668981 -.01960384  00000+0 -16982-1 0  9990
2 66978  43.0007  98.8066 0001643 279.8837  69.0515 15.71242021  3629
STARLINK-36107          
1 66979U 25288W   25357.91668981 -.01958629  00000+0 -16966-1 0  9992
2 66979  43.0005  98.8018 0001687 281.7442  69.1105 15.71239899  3622
STARLINK-36086          
1 66980U 25288X   25357.91668981 -.01957440  00000+0 -16955-1 0  9992
2 66980  43.0006  98.7968 0001589 278.8558  73.9161 15.71239601  3620
STARLINK-36142          
1 66981U 25288Y   25357.91668981 -.01953173  00000+0 -16916-1 0  9999
2 66981  43.0006  98.7920 0001577 279.6887  75.0014 15.71236459  3628
STARLINK-36113          
1 66982U 25288Z   25357.91668981 -.01965234  00000+0 -17028-1 0  9996
2 66982  43.0006  98.7870 0001582 276.9446  79.6617 15.71243872  3626
STARLINK-36145          
1 66983U 25288AA  25357.91668981 -.01947069  00000+0 -16876-1 0  9993
2 66983  43.0008  98.7771 0001325 285.2406  75.2379 15.71210697  3629
STARLINK-35591          
1 66984U 25288AB  25357.91668981 -.01955900  00000+0 -16941-1 0  9990
2 66984  43.0005  98.7818 0001572 279.0056  79.5184 15.71238249  3629
STARLINK-36103          
1 66985U 25288AC  25357.91668981 -.01956866  00000+0 -16949-1 0  9991
2 66985  43.0008  98.7718 0001606 279.2260  83.1320 15.71239273  3620
STARLINK-36135          
1 66986U 25288AD  25357.91668981 -.01954885  00000+0 -16931-1 0  9992
2 66986  43.0005  98.7660 0001637 280.9481  83.3275 15.71237675  3627
STARLINK-36147          
1 66987U 25288AE  25357.91668981 -.01965927  00000+0 -17034-1 0  9997
2 66987  43.0006  98.7629 0001531 281.7489  84.4383 15.71246240  3624
