CCSDS_OMM_VERS = 2.0
CREATION_DATE  = 
ORIGINATOR     = 

OBJECT_NAME    = STARLINK-35772
OBJECT_ID      = 2025-288T
CENTER_NAME    = EARTH
REF_FRAME      = TEME
TIME_SYSTEM    = UTC
MEAN_ELEMENT_THEORY = SGP/SGP4

EPOCH          = 2025-12-23T22:00:01.999584
MEAN_MOTION    = 15.50528466
ECCENTRICITY   = .00014767
INCLINATION    = 43.0001
RA_OF_ASC_NODE = 99.7126
ARG_OF_PERICENTER = 271.7913
MEAN_ANOMALY   = 72.5018

EPHEMERIS_TYPE = 0
CLASSIFICATION_TYPE = U
NORAD_CAT_ID   = 66976
ELEMENT_SET_NO = 999
REV_AT_EPOCH   = 362
BSTAR          = -.42859111E-1
MEAN_MOTION_DOT = -.2213475E-1
MEAN_MOTION_DDOT = 0

CCSDS_OMM_VERS = 2.0
CREATION_DATE  = 
ORIGINATOR     = 

OBJECT_NAME    = STARLINK-35770
OBJECT_ID      = 2025-288U
CENTER_NAME    = EARTH
REF_FRAME      = TEME
TIME_SYSTEM    = UTC
MEAN_ELEMENT_THEORY = SGP/SGP4

EPOCH          = 2025-12-23T22:00:01.999584
MEAN_MOTION    = 15.71238410
ECCENTRICITY   = .00015496
INCLINATION    = 43.0003
RA_OF_ASC_NODE = 98.8215
ARG_OF_PERICENTER = 279.0090
MEAN_ANOMALY   = 64.1782

EPHEMERIS_TYPE = 0
CLASSIFICATION_TYPE = U
NORAD_CAT_ID   = 66977
ELEMENT_SET_NO = 999
REV_AT_EPOCH   = 362
BSTAR          = -.16946385E-1
MEAN_MOTION_DOT = -.1956446E-1
MEAN_MOTION_DDOT = 0

CCSDS_OMM_VERS = 2.0
CREATION_DATE  = 
ORIGINATOR     = 

OBJECT_NAME    = STARLINK-35787
OBJECT_ID      = 2025-288V
CENTER_NAME    = EARTH
REF_FRAME      = TEME
TIME_SYSTEM    = UTC
MEAN_ELEMENT_THEORY = SGP/SGP4

EPOCH          = 2025-12-23T22:00:01.999584
MEAN_MOTION    = 15.71242021
ECCENTRICITY   = .00016439
INCLINATION    = 43.0007
RA_OF_ASC_NODE = 98.8066
ARG_OF_PERICENTER = 279.8837
MEAN_ANOMALY   = 69.0515

EPHEMERIS_TYPE = 0
CLASSIFICATION_TYPE = U
NORAD_CAT_ID   = 66978
ELEMENT_SET_NO = 999
REV_AT_EPOCH   = 362
BSTAR          = -.16981623E-1
MEAN_MOTION_DOT = -.1960384E-1
MEAN_MOTION_DDOT = 0

CCSDS_OMM_VERS = 2.0
CREATION_DATE  = 
ORIGINATOR     = 

OBJECT_NAME    = STARLINK-36107
OBJECT_ID      = 2025-288W
CENTER_NAME    = EARTH
REF_FRAME      = TEME
TIME_SYSTEM    = UTC
MEAN_ELEMENT_THEORY = SGP/SGP4

EPOCH          = 2025-12-23T22:00:01.999584
MEAN_MOTION    = 15.71239899
ECCENTRICITY   = .00016873
INCLINATION    = 43.0005
RA_OF_ASC_NODE = 98.8018
ARG_OF_PERICENTER = 281.7442
MEAN_ANOMALY   = 69.1105

EPHEMERIS_TYPE = 0
CLASSIFICATION_TYPE = U
NORAD_CAT_ID   = 66979
ELEMENT_SET_NO = 999
REV_AT_EPOCH   = 362
BSTAR          = -.16965611E-1
MEAN_MOTION_DOT = -.1958629E-1
MEAN_MOTION_DDOT = 0

CCSDS_OMM_VERS = 2.0
CREATION_DATE  = 
ORIGINATOR     = 

OBJECT_NAME    = STARLINK-36086
OBJECT_ID      = 2025-288X
CENTER_NAME    = EARTH
REF_FRAME      = TEME
TIME_SYSTEM    = UTC
MEAN_ELEMENT_THEORY = SGP/SGP4

EPOCH          = 2025-12-23T22:00:01.999584
MEAN_MOTION    = 15.71239601
ECCENTRICITY   = .00015897
INCLINATION    = 43.0006
RA_OF_ASC_NODE = 98.7968
ARG_OF_PERICENTER = 278.8558
MEAN_ANOMALY   = 73.9161

EPHEMERIS_TYPE = 0
CLASSIFICATION_TYPE = U
NORAD_CAT_ID   = 66980
ELEMENT_SET_NO = 999
REV_AT_EPOCH   = 362
BSTAR          = -.16954955E-1
MEAN_MOTION_DOT = -.195744E-1
MEAN_MOTION_DDOT = 0

CCSDS_OMM_VERS = 2.0
CREATION_DATE  = 
ORIGINATOR     = 

OBJECT_NAME    = STARLINK-36142
OBJECT_ID      = 2025-288Y
CENTER_NAME    = EARTH
REF_FRAME      = TEME
TIME_SYSTEM    = UTC
MEAN_ELEMENT_THEORY = SGP/SGP4

EPOCH          = 2025-12-23T22:00:01.999584
MEAN_MOTION    = 15.71236459
ECCENTRICITY   = .00015774
INCLINATION    = 43.0006
RA_OF_ASC_NODE = 98.7920
ARG_OF_PERICENTER = 279.6887
MEAN_ANOMALY   = 75.0014

EPHEMERIS_TYPE = 0
CLASSIFICATION_TYPE = U
NORAD_CAT_ID   = 66981
ELEMENT_SET_NO = 999
REV_AT_EPOCH   = 362
BSTAR          = -.16915514E-1
MEAN_MOTION_DOT = -.1953173E-1
MEAN_MOTION_DDOT = 0

CCSDS_OMM_VERS = 2.0
CREATION_DATE  = 
ORIGINATOR     = 

OBJECT_NAME    = STARLINK-36113
OBJECT_ID      = 2025-288Z
CENTER_NAME    = EARTH
REF_FRAME      = TEME
TIME_SYSTEM    = UTC
MEAN_ELEMENT_THEORY = SGP/SGP4

EPOCH          = 2025-12-23T22:00:01.999584
MEAN_MOTION    = 15.71243872
ECCENTRICITY   = .00015828
INCLINATION    = 43.0006
RA_OF_ASC_NODE = 98.7870
ARG_OF_PERICENTER = 276.9446
MEAN_ANOMALY   = 79.6617

EPHEMERIS_TYPE = 0
CLASSIFICATION_TYPE = U
NORAD_CAT_ID   = 66982
ELEMENT_SET_NO = 999
REV_AT_EPOCH   = 362
BSTAR          = -.17028323E-1
MEAN_MOTION_DOT = -.1965234E-1
MEAN_MOTION_DDOT = 0

CCSDS_OMM_VERS = 2.0
CREATION_DATE  = 
ORIGINATOR     = 

OBJECT_NAME    = STARLINK-36145
OBJECT_ID      = 2025-288AA
CENTER_NAME    = EARTH
REF_FRAME      = TEME
TIME_SYSTEM    = UTC
MEAN_ELEMENT_THEORY = SGP/SGP4

EPOCH          = 2025-12-23T22:00:01.999584
MEAN_MOTION    = 15.71210697
ECCENTRICITY   = .00013254
INCLINATION    = 43.0008
RA_OF_ASC_NODE = 98.7771
ARG_OF_PERICENTER = 285.2406
MEAN_ANOMALY   = 75.2379

EPHEMERIS_TYPE = 0
CLASSIFICATION_TYPE = U
NORAD_CAT_ID   = 66983
ELEMENT_SET_NO = 999
REV_AT_EPOCH   = 362
BSTAR          = -.1687621E-1
MEAN_MOTION_DOT = -.1947069E-1
MEAN_MOTION_DDOT = 0

CCSDS_OMM_VERS = 2.0
CREATION_DATE  = 
ORIGINATOR     = 

OBJECT_NAME    = STARLINK-35591
OBJECT_ID      = 2025-288AB
CENTER_NAME    = EARTH
REF_FRAME      = TEME
TIME_SYSTEM    = UTC
MEAN_ELEMENT_THEORY = SGP/SGP4

EPOCH          = 2025-12-23T22:00:01.999584
MEAN_MOTION    = 15.71238249
ECCENTRICITY   = .00015723
INCLINATION    = 43.0005
RA_OF_ASC_NODE = 98.7818
ARG_OF_PERICENTER = 279.0056
MEAN_ANOMALY   = 79.5184

EPHEMERIS_TYPE = 0
CLASSIFICATION_TYPE = U
NORAD_CAT_ID   = 66984
ELEMENT_SET_NO = 999
REV_AT_EPOCH   = 362
BSTAR          = -.16940976E-1
MEAN_MOTION_DOT = -.19559E-1
MEAN_MOTION_DDOT = 0

CCSDS_OMM_VERS = 2.0
CREATION_DATE  = 
ORIGINATOR     = 

OBJECT_NAME    = STARLINK-36103
OBJECT_ID      = 2025-288AC
CENTER_NAME    = EARTH
REF_FRAME      = TEME
TIME_SYSTEM    = UTC
MEAN_ELEMENT_THEORY = SGP/SGP4

EPOCH          = 2025-12-23T22:00:01.999584
MEAN_MOTION    = 15.71239273
ECCENTRICITY   = .00016066
INCLINATION    = 43.0008
RA_OF_ASC_NODE = 98.7718
ARG_OF_PERICENTER = 279.2260
MEAN_ANOMALY   = 83.1320

EPHEMERIS_TYPE = 0
CLASSIFICATION_TYPE = U
NORAD_CAT_ID   = 66985
ELEMENT_SET_NO = 999
REV_AT_EPOCH   = 362
BSTAR          = -.16949437E-1
MEAN_MOTION_DOT = -.1956866E-1
MEAN_MOTION_DDOT = 0

CCSDS_OMM_VERS = 2.0
CREATION_DATE  = 
ORIGINATOR     = 

OBJECT_NAME    = STARLINK-36135
OBJECT_ID      = 2025-288AD
CENTER_NAME    = EARTH
REF_FRAME      = TEME
TIME_SYSTEM    = UTC
MEAN_ELEMENT_THEORY = SGP/SGP4

EPOCH          = 2025-12-23T22:00:01.999584
MEAN_MOTION    = 15.71237675
ECCENTRICITY   = .0001637
INCLINATION    = 43.0005
RA_OF_ASC_NODE = 98.7660
ARG_OF_PERICENTER = 280.9481
MEAN_ANOMALY   = 83.3275

EPHEMERIS_TYPE = 0
CLASSIFICATION_TYPE = U
NORAD_CAT_ID   = 66986
ELEMENT_SET_NO = 999
REV_AT_EPOCH   = 362
BSTAR          = -.16930938E-1
MEAN_MOTION_DOT = -.1954885E-1
MEAN_MOTION_DDOT = 0

CCSDS_OMM_VERS = 2.0
CREATION_DATE  = 
ORIGINATOR     = 

OBJECT_NAME    = STARLINK-36147
OBJECT_ID      = 2025-288AE
CENTER_NAME    = EARTH
REF_FRAME      = TEME
TIME_SYSTEM    = UTC
MEAN_ELEMENT_THEORY = SGP/SGP4

EPOCH          = 2025-12-23T22:00:01.999584
MEAN_MOTION    = 15.71246240
ECCENTRICITY   = .00015313
INCLINATION    = 43.0006
RA_OF_ASC_NODE = 98.7629
ARG_OF_PERICENTER = 281.7489
MEAN_ANOMALY   = 84.4383

EPHEMERIS_TYPE = 0
CLASSIFICATION_TYPE = U
NORAD_CAT_ID   = 66987
ELEMENT_SET_NO = 999
REV_AT_EPOCH   = 362
BSTAR          = -.17033813E-1
MEAN_MOTION_DOT = -.1965927E-1
MEAN_MOTION_DDOT = 0

